IRIDIUM 136             
1 42962U 17061H   24234.56888502  .00000052  00000+0  11336-4 0  9999
2 42962  86.3970 302.9973 0002331  89.1512 270.9951 14.34217577359579
